[{"OBJECT_NAME":"STARLINK-33776","OBJECT_ID":"2025-093R","EPOCH":"2026-03-09T10:08:58.061472","MEAN_MOTION":15.27618549,"ECCENTRICITY":0.00020593,"INCLINATION":43.0043,"RA_OF_ASC_NODE":79.2097,"ARG_OF_PERICENTER":260.6442,"MEAN_ANOMALY":99.4177,"EPHEMERIS_TYPE":0,"CLASSIFICATION_TYPE":"U","NORAD_CAT_ID":63851,"ELEMENT_SET_NO":999,"REV_AT_EPOCH":4792,"BSTAR":0.0014489719,"MEAN_MOTION_DOT":0.00039874,"MEAN_MOTION_DDOT":0},{"OBJECT_NAME":"CZ-4B DEB","OBJECT_ID":"2010-051E","EPOCH":"2026-03-08T22:01:50.125728","MEAN_MOTION":15.23766972,"ECCENTRICITY":0.00561086,"INCLINATION":97.769,"RA_OF_ASC_NODE":240.5013,"ARG_OF_PERICENTER":301.1291,"MEAN_ANOMALY":58.4449,"EPHEMERIS_TYPE":0,"CLASSIFICATION_TYPE":"U","NORAD_CAT_ID":38184,"ELEMENT_SET_NO":999,"REV_AT_EPOCH":82066,"BSTAR":0.0024566319,"MEAN_MOTION_DOT":0.00062123,"MEAN_MOTION_DDOT":0}]
